ONEWEB-0597             
1 54663U 22166X   24192.50913303 -.00000068  00000+0 -19516-3 0  9993
2 54663  87.9280  24.6529 0002119  93.7045 266.4332 13.21824501 78186
ONEWEB-0600             
1 54664U 22166Y   24192.49178701  .00000060  00000+0  11348-3 0  9992
2 54664  87.9274  24.6953 0002035  90.7344 269.4023 13.21824469 78157
ONEWEB-0601             
1 54665U 22166Z   24192.48389264  .00000054  00000+0  99706-4 0  9998
2 54665  87.9282  24.6628 0002083 102.2338 257.9030 13.21823789 78346
ONEWEB-0602             
1 54666U 22166AA  24192.44919151 -.00000038  00000+0 -12369-3 0  9992
2 54666  87.9280  24.6735 0002142  95.5567 264.5812 13.21828662 78187
ONEWEB-0603             
1 54667U 22166AB  24192.52961971 -.00000069  00000+0 -19826-3 0  9998
2 54667  87.9283  24.6595 0002152  96.6414 263.4965 13.21827735 78120
ONEWEB-0604             
1 54668U 22166AC  24192.51702512 -.00000051  00000+0 -15548-3 0  9990
2 54668  87.9275  24.6399 0002091  83.0367 277.1005 13.21825630 78087
ONEWEB-0605             
1 54669U 22166AD  24192.51069687 -.00000054  00000+0 -16199-3 0  9996
2 54669  87.9275  24.6738 0002089 106.5798 253.5565 13.21823574 78153
ONEWEB-0606             
1 54670U 22166AE  24192.45707360 -.00000040  00000+0 -12772-3 0  9996
2 54670  87.9280  24.6760 0001743  83.8276 276.3056 13.21823355 78201
